[
    {
        "Altitude(m)": 612513.8999787365,
        "Argument of Periapsis(deg)": 0.0,
        "Eccentricity": 0.0,
        "Inclination(deg)": 60.0,
        "Latitude(deg)": -28.135860914472833,
        "Longitude(deg)": 127.91308794007458,
        "Mean Anomaly(deg)": 212.72730000000004,
        "RAAN(deg)": 30.0,
        "Satellite Name": "Test1 145",
        "Satellite Number": 145,
        "Semi-Major Axis(m)": 6980739.136638005,
        "Time(s)": 0
    },
    {
        "Altitude(m)": 612708.2676800647,
        "Argument of Periapsis(deg)": 0.00010418945913296404,
        "Eccentricity": 0.0,
        "Inclination(deg)": 60.0,
        "Latitude(deg)": -28.647600402043697,
        "Longitude(deg)": 128.27031739026847,
        "Mean Anomaly(deg)": 213.34740614546183,
        "RAAN(deg)": 29.99957995086026,
        "Satellite Name": "Test1 145",
        "Satellite Number": 145,
        "Semi-Major Axis(m)": 6980739.136638005,
        "Time(s)": 10
    }
]